$$SOE
2460154.500000000, A.D. 2023-Jul-29 00:00:00.0000, -2.820791417708926E+08, 1.662570255946448E+08, -1.278149653627186E+07,
2460161.500000000, A.D. 2023-Aug-05 00:00:00.0000, -2.866956838933989E+08, 1.548383682708001E+08, -1.385154034484658E+07,
2460168.500000000, A.D. 2023-Aug-12 00:00:00.0000, -2.909110635071059E+08, 1.432030631400565E+08, -1.490219552677746E+07,
2460175.500000000, A.D. 2023-Aug-19 00:00:00.0000, -2.947135618122700E+08, 1.313645245507950E+08, -1.593169337734967E+07,
2460182.500000000, A.D. 2023-Aug-26 00:00:00.0000, -2.980918095319823E+08, 1.193368909806403E+08, -1.693824952050449E+07,
2460189.500000000, A.D. 2023-Sep-02 00:00:00.0000, -3.010348346537312E+08, 1.071350294708238E+08, -1.792006751425311E+07,
2460196.500000000, A.D. 2023-Sep-09 00:00:00.0000, -3.035321124399631E+08, 9.477453687647951E+07, -1.887534283975848E+07,
2460203.500000000, A.D. 2023-Sep-16 00:00:00.0000, -3.055736173878064E+08, 8.227173752979910E+07, -1.980226730287909E+07,
2460210.500000000, A.D. 2023-Sep-23 00:00:00.0000, -3.071498765259370E+08, 6.964367725367889E+07, -2.069903386809997E+07,
2460217.500000000, A.D. 2023-Sep-30 00:00:00.0000, -3.082520241450933E+08, 5.690811456741884E+07, -2.156384179753209E+07,
2460224.500000000, A.D. 2023-Oct-07 00:00:00.0000, -3.088718600261824E+08, 4.408350819776812E+07, -2.239490192071725E+07,
2460231.500000000, A.D. 2023-Oct-14 00:00:00.0000, -3.090019097902941E+08, 3.118899725437314E+07, -2.319044239490484E+07,
2460238.500000000, A.D. 2023-Oct-21 00:00:00.0000, -3.086354837467149E+08, 1.824437537027963E+07, -2.394871510751440E+07,
2460245.500000000, A.D. 2023-Oct-28 00:00:00.0000, -3.077667352035265E+08, 5.270060788249645E+06, -2.466800238325554E+07,
2460252.500000000, A.D. 2023-Nov-04 00:00:00.0000, -3.063907189859692E+08, -7.712938627104357E+06, -2.534662391736150E+07,
2460259.500000000, A.D. 2023-Nov-11 00:00:00.0000, -3.045034494382779E+08, -2.068306625025066E+07, -2.598294396870555E+07,
2460266.500000000, A.D. 2023-Nov-18 00:00:00.0000, -3.021019570920406E+08, -3.361826363279993E+07, -2.657537879854552E+07,
2460273.500000000, A.D. 2023-Nov-25 00:00:00.0000, -2.991843432845210E+08, -4.649602357316452E+07, -2.712240431180708E+07,
2460280.500000000, A.D. 2023-Dec-02 00:00:00.0000, -2.957498320192000E+08, -5.929344933487312E+07, -2.762256384924527E+07,
2460287.500000000, A.D. 2023-Dec-09 00:00:00.0000, -2.917988182849617E+08, -7.198731999778889E+07, -2.807447608055388E+07,
2460294.500000000, A.D. 2023-Dec-16 00:00:00.0000, -2.873329118246468E+08, -8.455416176662563E+07, -2.847684295556589E+07,
2460301.500000000, A.D. 2023-Dec-23 00:00:00.0000, -2.823549752782574E+08, -9.697032429130140E+07, -2.882845761533443E+07,
2460308.500000000, A.D. 2023-Dec-30 00:00:00.0000, -2.768691573229400E+08, -1.092120605919954E+08, -2.912821197533333E+07,
2460315.500000000, A.D. 2024-Jan-06 00:00:00.0000, -2.708809218888776E+08, -1.212556124896308E+08, -2.937510392823134E+07,
2460322.500000000, A.D. 2024-Jan-13 00:00:00.0000, -2.643970696268892E+08, -1.330773027829825E+08, -2.956824451847929E+07,
2460329.500000000, A.D. 2024-Jan-20 00:00:00.0000, -2.574257497992451E+08, -1.446536304136891E+08, -2.970686485644478E+07,
2460336.500000000, A.D. 2024-Jan-27 00:00:00.0000, -2.499764640700269E+08, -1.559613671978610E+08, -2.979032243543814E+07,
2460343.500000000, A.D. 2024-Feb-03 00:00:00.0000, -2.420600621507629E+08, -1.669776562336024E+08, -2.981810679637309E+07,
2460350.500000000, A.D. 2024-Feb-10 00:00:00.0000, -2.336887286690412E+08, -1.776801113785204E+08, -2.978984450808026E+07,
2460357.500000000, A.D. 2024-Feb-17 00:00:00.0000, -2.248759609030021E+08, -1.880469168295488E+08, -2.970530340528850E+07,
2460364.500000000, A.D. 2024-Feb-24 00:00:00.0000, -2.156365372575822E+08, -1.980569257714268E+08, -2.956439602161218E+07,
2460371.500000000, A.D. 2024-Mar-02 00:00:00.0000, -2.059864764893689E+08, -2.076897570716054E+08, -2.936718216256326E+07,
2460378.500000000, A.D. 2024-Mar-09 00:00:00.0000, -1.959429877069260E+08, -2.169258890225450E+08, -2.911387058418114E+07,
2460385.500000000, A.D. 2024-Mar-16 00:00:00.0000, -1.855244110535498E+08, -2.257467488897766E+08, -2.880481975689743E+07,
2460392.500000000, A.D. 2024-Mar-23 00:00:00.0000, -1.747501496163428E+08, -2.341347961504178E+08, -2.844053758776979E+07,
2460399.500000000, A.D. 2024-Mar-30 00:00:00.0000, -1.636405953753869E+08, -2.420735985006576E+08, -2.802167988574047E+07,
2460406.500000000, A.D. 2024-Apr-06 00:00:00.0000, -1.522170496339518E+08, -2.495479031330733E+08, -2.754904787267880E+07,
2460413.500000000, A.D. 2024-Apr-13 00:00:00.0000, -1.405016351916364E+08, -2.565437016825084E+08, -2.702358501781929E+07,
2460420.500000000, A.D. 2024-Apr-20 00:00:00.0000, -1.285172021237734E+08, -2.630482855111375E+08, -2.644637292403851E+07,
2460427.500000000, A.D. 2024-Apr-27 00:00:00.0000, -1.162872296714742E+08, -2.690502913647236E+08, -2.581862622037089E+07,
2460434.500000000, A.D. 2024-May-04 00:00:00.0000, -1.038357251976031E+08, -2.745397377084491E+08, -2.514168658645262E+07,
2460441.500000000, A.D. 2024-May-11 00:00:00.0000, -9.118712104651111E+07, -2.795080515910711E+08, -2.441701601090553E+07,
2460448.500000000, A.D. 2024-May-18 00:00:00.0000, -7.836617031329018E+07, -2.839480859116793E+08, -2.364618937223716E+07,
2460455.500000000, A.D. 2024-May-25 00:00:00.0000, -6.539784258012636E+07, -2.878541271409123E+08, -2.283088643657474E+07,
2460462.500000000, A.D. 2024-Jun-01 00:00:00.0000, -5.230722061696602E+07, -2.912218937364891E+08, -2.197288337877484E+07,
2460469.500000000, A.D. 2024-Jun-08 00:00:00.0000, -3.911939880834425E+07, -2.940485255832474E+08, -2.107404394995713E+07,
2460476.500000000, A.D. 2024-Jun-15 00:00:00.0000, -2.585938384556017E+07, -2.963325643337739E+08, -2.013631038279785E+07,
2460483.500000000, A.D. 2024-Jun-22 00:00:00.0000, -1.255199954225303E+07, -2.980739239970864E+08, -1.916169394496725E+07,
2460490.500000000, A.D. 2024-Jun-29 00:00:00.0000, 7.782013519975120E+05, -2.992738542065167E+08, -1.815226519222011E+07,
2460497.500000000, A.D. 2024-Jul-06 00:00:00.0000, 1.410702034039136E+07, -2.999348993277277E+08, -1.711014446147910E+07,
2460504.500000000, A.D. 2024-Jul-13 00:00:00.0000, 2.741069278206480E+07, -3.000608513402413E+08, -1.603749264441536E+07,
2460511.500000000, A.D. 2024-Jul-20 00:00:00.0000, 4.066596149256919E+07, -2.996566961436535E+08, -1.493650205168535E+07,
2460518.500000000, A.D. 2024-Jul-27 00:00:00.0000, 5.385014336095683E+07, -2.987285550664399E+08, -1.380938746367936E+07,
2460525.500000000, A.D. 2024-Aug-03 00:00:00.0000, 6.694118903749903E+07, -2.972836227714831E+08, -1.265837749124542E+07,
2460532.500000000, A.D. 2024-Aug-10 00:00:00.0000, 7.991773574127249E+07, -2.953301023665711E+08, -1.148570631953527E+07,
2460539.500000000, A.D. 2024-Aug-17 00:00:00.0000, 9.275915321617219E+07, -2.928771384726377E+08, -1.029360588543250E+07,
2460546.500000000, A.D. 2024-Aug-24 00:00:00.0000, 1.054455829370456E+08, -2.899347490088114E+08, -9.084298531917781E+06,
2460553.500000000, A.D. 2024-Aug-31 00:00:00.0000, 1.179579708383856E+08, -2.865137564518104E+08, -7.859990185115919E+06,
2460560.500000000, A.D. 2024-Sep-07 00:00:00.0000, 1.302780941560181E+08, -2.826257190924224E+08, -6.622864098272830E+06,
2460567.500000000, A.D. 2024-Sep-14 00:00:00.0000, 1.423885827474576E+08, -2.782828618852021E+08, -5.375075101747945E+06,
2460574.500000000, A.D. 2024-Sep-21 00:00:00.0000, 1.542729331887086E+08, -2.734980070066390E+08, -4.118744144568712E+06,
2460581.500000000, A.D. 2024-Sep-28 00:00:00.0000, 1.659155155243824E+08, -2.682845078104422E+08, -2.855953345579073E+06,
2460588.500000000, A.D. 2024-Oct-05 00:00:00.0000, 1.773015767360275E+08, -2.626561865775358E+08, -1.588741883637741E+06,
2460595.500000000, A.D. 2024-Oct-12 00:00:00.0000, 1.884172409827658E+08, -2.566272734239736E+08, -3.191024373723865E+05,
2460602.500000000, A.D. 2024-Oct-19 00:00:00.0000, 1.992495052844267E+08, -2.502123469226234E+08, 9.510219819054604E+05,
2460609.500000000, A.D. 2024-Oct-26 00:00:00.0000, 2.097862310333122E+08, -2.434262774654438E+08, 2.219740763290644E+06,
2460616.500000000, A.D. 2024-Nov-02 00:00:00.0000, 2.200161320018362E+08, -2.362841736814244E+08, 3.485217983662143E+06,
2460623.500000000, A.D. 2024-Nov-09 00:00:00.0000, 2.299287593425957E+08, -2.288013319997425E+08, 4.745674267158613E+06,
2460630.500000000, A.D. 2024-Nov-16 00:00:00.0000, 2.395144839990182E+08, -2.209931894195291E+08, 5.999388239904597E+06,
2460637.500000000, A.D. 2024-Nov-23 00:00:00.0000, 2.487644769566779E+08, -2.128752795613392E+08, 7.244697598277584E+06,
2460644.500000000, A.D. 2024-Nov-30 00:00:00.0000, 2.576706879109147E+08, -2.044631920405561E+08, 8.479999796782032E+06,
2460651.500000000, A.D. 2024-Dec-07 00:00:00.0000, 2.662258231147591E+08, -1.957725347166000E+08, 9.703752382224470E+06,
2460658.500000000, A.D. 2024-Dec-14 00:00:00.0000, 2.744233220333549E+08, -1.868188975465496E+08, 1.091447316878278E+07,
2460665.500000000, A.D. 2024-Dec-21 00:00:00.0000, 2.822573307668806E+08, -1.776178192100059E+08, 1.211074039465723E+07,
2460672.500000000, A.D. 2024-Dec-28 00:00:00.0000, 2.897226744652184E+08, -1.681847593701138E+08, 1.329119246355797E+07,
2460679.500000000, A.D. 2025-Jan-04 00:00:00.0000, 2.968148315621436E+08, -1.585350740737593E+08, 1.445452725241658E+07,
2460686.500000000, A.D. 2025-Jan-11 00:00:00.0000, 3.035299082189955E+08, -1.486839925025599E+08, 1.559950131285717E+07,
2460693.500000000, A.D. 2025-Jan-18 00:00:00.0000, 3.098646122489347E+08, -1.386465958588499E+08, 1.672492899905813E+07,
2460700.500000000, A.D. 2025-Jan-25 00:00:00.0000, 3.158162269302763E+08, -1.284377987212024E+08, 1.782968148296424E+07,
2460707.500000000, A.D. 2025-Feb-01 00:00:00.0000, 3.213825850422520E+08, -1.180723327564411E+08, 1.891268565758112E+07,
2460714.500000000, A.D. 2025-Feb-08 00:00:00.0000, 3.265620433059902E+08, -1.075647326243903E+08, 1.997292294371639E+07,
$$EOE